{
  "type": "FeatureCollection",
  "features": [
    {
      "type": "Feature",
      "properties": {
        "name": "India",
        "iso_a2": "IN",
        "iso_a3": "IND",
        "iso_n3": "356",
        "admin": "India",
        "adm0_a3": "IND",
        "adm0_level": 2,
        "adm0_name": "India",
        "adm1_code": "IN-DL",
        "adm1_name": "Delhi",
        "adm1_a3": "DL",
        "adm1_level": 3,
        "adm2_code": "IN-06",
        "adm2_name": "Delhi",
        "adm2_a3": "DL",
        "adm2_level": 4,
        "adm3_code": null,
        "adm3_name": null,
        "adm3_level": 5,
        "adm4_code": null,
        "adm4_name": null,
        "adm4_level": 6,
        "adm5_code": null,
        "adm5_name": null,
        "adm5_level": 7,
        "adm6_code": null,
        "adm6_name": null,
        "adm6_level": 8,
        "adm7_code": null,
        "adm7_name": null,
        "adm7_level": 9,
        "adm8_code": null,
        "adm8_name": null,
        "adm8_level": 10,
        "adm9_code": null,
        "adm9_name": null,
        "adm9_level": 11,
        "adm10_code": null,
        "adm10_name": null,
        "adm10_level": 12,
        "adm11_code": null,
        "adm11_name": null,
        "adm11_level": 13,
        "adm12_code": null,
        "adm12_name": null,
        "adm12_level": 14,
        "adm13_code": null,
        "adm13_name": null,
        "adm13_level": 15,
        "adm14_code": null,
        "adm14_name": null,
        "adm14_level": 16,
        "adm15_code": null,
        "adm15_name": null,
        "adm15_level": 17,
        "adm16_code": null,
        "adm16_name": null,
        "adm16_level": 18,
        "adm17_code": null,
        "adm17_name": null,
        "adm17_level": 19,
        "adm18_code": null,
        "adm18_name": null,
        "adm18_level": 20,
        "adm19_code": null,
        "adm19_name": null,
        "adm19_level": 21,
        "adm20_code": null,
        "adm20_name": null,
        "adm20_level": 22,
        "adm21_code": null,
        "adm21_name": null,
        "adm21_level": 23,
        "adm22_code": null,
        "adm22_name": null,
        "adm22_level": 24,
        "adm23_code": null,
        "adm23_name": null,
        "adm23_level": 25,
        "adm24_code": null,
        "adm24_name": null,
        "adm24_level": 26,
        "adm25_code": null,
        "adm25_name": null,
        "adm25_level": 27,
        "adm26_code": null,
        "adm26_name": null,
        "adm26_level": 28,
        "adm27_code": null,
        "adm27_name": null,
        "adm27_level": 29,
        "adm28_code": null,
        "adm28_name": null,
        "adm28_level": 30,
        "adm29_code": null,
        "adm29_name": null,
        "adm29_level": 31,
        "adm30_code": null,
        "adm30_name": null,
        "adm30_level": 32,
        "adm31_code": null,
        "adm31_name": null,
        "adm31_level": 33,
        "adm32_code": null,
        "adm32_name": null,
        "adm32_level": 34,
        "adm33_code": null,
        "adm33_name": null,
        "adm33_level": 35,
        "adm34_code": null,
        "adm34_name": null,
        "adm34_level": 36,
        "adm35_code": null,
        "adm35_name": null,
        "adm35_level": 37,
        "adm36_code": null,
        "adm36_name": null,
        "adm36_level": 38,
        "adm37_code": null,
        "adm37_name": null,
        "adm37_level": 39,
        "adm38_code": null,
        "adm38_name": null,
        "adm38_level": 40,
        "adm39_code": null,
        "adm39_name": null,
        "adm39_level": 41,
        "adm40_code": null,
        "adm40_name": null,
        "adm40_level": 42,
        "adm41_code": null,
        "adm41_name": null,
        "adm41_level": 43,
        "adm42_code": null,
        "adm42_name": null,
        "adm42_level": 44,
        "adm43_code": null,
        "adm43_name": null,
        "adm43_level": 45,
        "adm44_code": null,
        "adm44_name": null,
        "adm44_level": 46,
        "adm45_code": null,
        "adm45_name": null,
        "adm45_level": 47,
        "adm46_code": null,
        "adm46_name": null,
        "adm46_level": 48,
        "adm47_code": null,
        "adm47_name": null,
        "adm47_level": 49,
        "adm48_code": null,
        "adm48_name": null,
        "adm48_level": 50,
        "adm49_code": null,
        "adm49_name": null,
        "adm49_level": 51,
        "adm50_code": null,
        "adm50_name": null,
        "adm50_level": 52,
        "adm51_code": null,
        "adm51_name": null,
        "adm51_level": 53,
        "adm52_code": null,
        "adm52_name": null,
        "adm52_level": 54,
        "adm53_code": null,
        "adm53_name": null,
        "adm53_level": 55,
        "adm54_code": null,
        "adm54_name": null,
        "adm54_level": 56,
        "adm55_code": null,
        "adm55_name": null,
        "adm55_level": 57,
        "adm56_code": null,
        "adm56_name": null,
        "adm56_level": 58,
        "adm57_code": null,
        "adm57_name": null,
        "adm57_level": 59,
        "adm58_code": null,
        "adm58_name": null,
        "adm58_level": 60
      }
    }
  ]
}
        